NORAD_CAT_ID,OBJECT_NAME,OBJECT_TYPE,EPOCH,MEAN_MOTION,ECCENTRICITY,INCLINATION,RA_OF_ASC_NODE,ARG_OF_PERICENTER,MEAN_ANOMALY,BSTAR,MEAN_MOTION_DOT,MEAN_MOTION_DDOT,TLE_LINE0,TLE_LINE1,TLE_LINE2,SEMIMAJOR_AXIS,PERIOD,APOGEE,PERIGEE,DECAYED
44767,STARLINK-1062,PAYLOAD,2022-09-09 06:57:47,15.06401042,0.0001450999999999,53.0545,201.0877,58.8077,301.3054,0.00020072,2.71e-05,0.0,0 STARLINK-1062,1 44767U 19074BG  22252.29013094  .00002710  00000-0  20072-3 0  9994,2 44767  53.0545 201.0877 0001451  58.8077 301.3054 15.06401042155665,6925.345,95.592,548.215,546.205,0.0
44767,STARLINK-1062,PAYLOAD,2022-09-10 03:39:48,15.06392091,0.000148,53.0547,197.2155,86.8475,273.2683,-1.5856e-05,-5.18e-06,0.0,0 STARLINK-1062,1 44767U 19074BG  22253.15264937 -.00000518  00000-0 -15856-4 0  9995,2 44767  53.0547 197.2155 0001480  86.8475 273.2683 15.06392091155968,6925.373000000001,95.593,548.263,546.2130000000002,0.0
44767,STARLINK-1062,PAYLOAD,2022-09-10 06:50:53,15.06387658,0.000146,53.0542,196.6192,80.2318,279.8836,7.6114e-05,8.52e-06,0.0,0 STARLINK-1062,1 44767U 19074BG  22253.28534449  .00000852  00000-0  76114-4 0  9990,2 44767  53.0542 196.6192 0001460  80.2318 279.8836 15.06387658155818,6925.386,95.593,548.262,546.24,0.0
44767,STARLINK-1062,PAYLOAD,2022-09-11 03:32:53,15.06395639,0.0001467,53.0544,192.7476,69.7026,290.4120000000001,-6.2901e-05,-1.218e-05,0.0,0 STARLINK-1062,1 44767U 19074BG  22254.14784458 -.00001218  00000-0 -62901-4 0  9991,2 44767  53.0544 192.7476 0001467  69.7026 290.4120 15.06395639156114,6925.361999999999,95.592,548.243,546.211,0.0
44767,STARLINK-1062,PAYLOAD,2022-09-11 05:08:26,15.06397718,0.0001506999999999,53.0547,192.4501,64.2108,295.9037,-2.167e-05,-6.04e-06,0.0,0 STARLINK-1062,1 44767U 19074BG  22254.21419488 -.00000604  00000-0 -21670-4 0  9993,2 44767  53.0547 192.4501 0001507  64.2108 295.9037 15.06397718155957,6925.356,95.592,548.264,546.177,0.0
44767,STARLINK-1062,PAYLOAD,2022-09-11 19:28:17,15.06402702,0.0001333,53.0549,189.7664,66.0362,294.0766,7.529100000000001e-05,8.400000000000001e-06,0.0,0 STARLINK-1062,1 44767U 19074BG  22254.81130892  .00000840  00000-0  75291-4 0  9996,2 44767  53.0549 189.7664 0001333  66.0362 294.0766 15.06402702156047,6925.34,95.592,548.128,546.2819999999998,0.0
44767,STARLINK-1062,PAYLOAD,2022-09-12 03:25:58,15.06400306,0.0001388,53.0547,188.2807,66.0765,294.0369,0.00018916,2.537e-05,0.0,0 STARLINK-1062,1 44767U 19074BG  22255.14304170  .00002537  00000-0  18916-3 0  9990,2 44767  53.0547 188.2807 0001388  66.0765 294.0369 15.06400306156266,6925.348000000001,95.592,548.174,546.251,0.0
44767,STARLINK-1062,PAYLOAD,2022-09-12 05:01:30,15.0640531,0.000133,53.0545,187.9825,96.4238,263.6902,0.00011004,1.358e-05,0.0,0 STARLINK-1062,1 44767U 19074BG  22255.20938581  .00001358  00000-0  11004-3 0  9997,2 44767  53.0545 187.9825 0001330  96.4238 263.6902 15.06405310156107,6925.331999999999,95.592,548.118,546.276,0.0
44767,STARLINK-1062,PAYLOAD,2022-09-12 19:21:22,15.06396187,9.52e-05,53.0543,185.3019,59.8619,300.2465,6.8047e-05,7.32e-06,0.0,0 STARLINK-1062,1 44767U 19074BG  22255.80651376  .00000732  00000-0  68047-4 0  9992,2 44767  53.0543 185.3019 0000952  59.8619 300.2465 15.06396187156368,6925.36,95.592,547.885,546.566,0.0
44767,STARLINK-1062,PAYLOAD,2022-09-13 12:52:18,15.06397485,0.0001509,53.055,182.0243,68.8663,291.2487,8.0381e-05,9.16e-06,0.0,0 STARLINK-1062,1 44767U 19074BG  22256.53632810  .00000916  00000-0  80381-4 0  9994,2 44767  53.0550 182.0243 0001509  68.8663 291.2487 15.06397485156306,6925.356,95.592,548.266,546.1759999999998,0.0
44767,STARLINK-1062,PAYLOAD,2022-09-14 01:36:37,15.0639791,0.0001476,53.054,179.6434,55.8873,304.2255,-4.314e-05,-9.24e-06,0.0,0 STARLINK-1062,1 44767U 19074BG  22257.06710557 -.00000924  00000-0 -43140-4 0  9991,2 44767  53.0540 179.6434 0001476  55.8873 304.2255 15.06397910156559,6925.355,95.592,548.242,546.198,0.0
44767,STARLINK-1062,PAYLOAD,2022-09-14 04:47:42,15.06397103,0.0001436,53.0542,179.0474,64.1552,295.9585,-4.2828e-05,-9.19e-06,0.0,0 STARLINK-1062,1 44767U 19074BG  22257.19979964 -.00000919  00000-0 -42828-4 0  9990,2 44767  53.0542 179.0474 0001436  64.1552 295.9585 15.06397103156402,6925.357,95.592,548.217,546.2280000000002,0.0
44767,STARLINK-1062,PAYLOAD,2022-09-14 19:07:34,15.06389903,0.0001347,53.0557,176.3659,67.0782,293.0349,-4.0271e-05,-8.81e-06,0.0,0 STARLINK-1062,1 44767U 19074BG  22257.79692938 -.00000881  00000-0 -40271-4 0  9997,2 44767  53.0557 176.3659 0001347  67.0782 293.0349 15.06389903156496,6925.38,95.593,548.177,546.312,0.0
44767,STARLINK-1062,PAYLOAD,2022-09-15 03:05:15,15.0640003,0.0001537,53.0562,174.877,73.5354,286.5804,4.9882e-05,4.62e-06,0.0,0 STARLINK-1062,1 44767U 19074BG  22258.12865652  .00000462  00000-0  49882-4 0  9990,2 44767  53.0562 174.8770 0001537  73.5354 286.5804 15.06400030156541,6925.348000000001,95.592,548.278,546.149,0.0
44767,STARLINK-1062,PAYLOAD,2022-09-16 04:33:54,15.06384862,0.0001303,53.055,170.1112,69.8067,290.3062,6.3644e-05,6.66e-06,0.0,0 STARLINK-1062,1 44767U 19074BG  22259.19021711  .00000666  00000-0  63644-4 0  9996,2 44767  53.0550 170.1112 0001303  69.8067 290.3062 15.06384862156876,6925.395,95.593,548.1619999999998,546.3580000000002,0.0
44767,STARLINK-1062,PAYLOAD,2022-09-17 02:51:28,15.06391175,0.0001331999999999,53.0548,165.9416,70.22399999999999,289.8893,-1.5184e-05,-5.07e-06,0.0,0 STARLINK-1062,1 44767U 19074BG  22260.11907686 -.00000507  00000-0 -15184-4 0  9996,2 44767  53.0548 165.9416 0001332  70.2240 289.8893 15.06391175156840,6925.376,95.593,548.163,546.318,0.0
44767,STARLINK-1062,PAYLOAD,2022-09-17 21:57:56,15.06393173,0.0001279,53.0547,162.3675,72.0716,288.0413,0.00014634,1.899e-05,0.0,0 STARLINK-1062,1 44767U 19074BG  22260.91523506  .00001899  00000-0  14634-3 0  9990,2 44767  53.0547 162.3675 0001279  72.0716 288.0413 15.06393173156967,6925.369000000002,95.593,548.12,546.349,0.0
44767,STARLINK-1062,PAYLOAD,2022-09-18 02:44:33,15.06399209,0.0001315,53.0544,161.474,70.9591,289.1541,0.00020016,2.701e-05,0.0,0 STARLINK-1062,1 44767U 19074BG  22261.11427134  .00002701  00000-0  20016-3 0  9997,2 44767  53.0544 161.4740 0001315  70.9591 289.1541 15.06399209157169,6925.351,95.592,548.127,546.305,0.0
44767,STARLINK-1062,PAYLOAD,2022-09-18 10:42:15,15.0639552,0.0001421,53.0547,159.9849,68.804,291.3101,0.00015952,2.095e-05,0.0,0 STARLINK-1062,1 44767U 19074BG  22261.44601024  .00002095  00000-0  15952-3 0  9994,2 44767  53.0547 159.9849 0001421  68.8040 291.3101 15.06395520157212,6925.361999999999,95.592,548.211,546.243,0.0
44767,STARLINK-1062,PAYLOAD,2022-09-19 02:37:38,15.06404249,0.0001498,53.0547,157.006,69.9922,290.1228,0.00021726,2.956e-05,0.0,0 STARLINK-1062,1 44767U 19074BG  22262.10947189  .00002956  00000-0  21726-3 0  9995,2 44767  53.0547 157.0060 0001498  69.9922 290.1228 15.06404249157149,6925.3359999999975,95.592,548.238,546.163,0.0
44767,STARLINK-1062,PAYLOAD,2022-09-20 02:30:44,15.06399683,0.0001476,53.0539,152.5387,71.786,288.3289,-5.835e-05,-1.15e-05,0.0,0 STARLINK-1062,1 44767U 19074BG  22263.10468174 -.00001150  00000-0 -58350-4 0  9999,2 44767  53.0539 152.5387 0001476  71.7860 288.3289 15.06399683157297,6925.35,95.592,548.237,546.192,0.0
44767,STARLINK-1062,PAYLOAD,2022-09-21 00:48:17,15.06401526,0.0001588,53.054,148.3689,75.6071,284.5094,4.6128e-06,-2.13e-06,0.0,0 STARLINK-1062,1 44767U 19074BG  22264.03353361 -.00000213  00000-0  46128-5 0  9992,2 44767  53.0540 148.3689 0001588  75.6071 284.5094 15.06401526157436,6925.344,95.592,548.309,546.109,0.0
44767,STARLINK-1062,PAYLOAD,2022-09-21 23:05:50,15.06395377,0.0001452,53.054,144.1987,73.2589,286.8559,1.7346e-05,-2.3e-07,0.0,0 STARLINK-1062,1 44767U 19074BG  22264.96239498 -.00000023  00000-0  17346-4 0  9996,2 44767  53.0540 144.1987 0001452  73.2589 286.8559 15.06395377157740,6925.363,95.592,548.2330000000002,546.222,0.0
44767,STARLINK-1062,PAYLOAD,2022-09-22 08:39:05,15.06391057,0.0001227,53.0545,142.412,67.6536,292.4583,4.4606e-06,-2.15e-06,0.0,0 STARLINK-1062,1 44767U 19074BG  22265.36048016 -.00000215  00000-0  44606-5 0  9998,2 44767  53.0545 142.4120 0001227  67.6536 292.4583 15.06391057157633,6925.376,95.593,548.091,546.391,0.0
44767,STARLINK-1062,PAYLOAD,2022-09-22 21:23:24,15.06389293,0.0001424,53.0524,140.0259,59.9922,300.1208,3.3488e-05,2.17e-06,0.0,0 STARLINK-1062,1 44767U 19074BG  22265.89125732  .00000217  00000-0  33488-4 0  9993,2 44767  53.0524 140.0259 0001424  59.9922 300.1208 15.06389293157718,6925.380999999999,95.593,548.2330000000002,546.26,0.0
44767,STARLINK-1062,PAYLOAD,2022-09-22 22:58:56,15.063919199999996,0.0001431,53.0535,139.7293,64.2242,295.8894,4.921300000000001e-05,4.51e-06,0.0,0 STARLINK-1062,1 44767U 19074BG  22265.95760259  .00000451  00000-0  49213-4 0  9992,2 44767  53.0535 139.7293 0001431  64.2242 295.8894 15.06391920157727,6925.373000000001,95.593,548.229,546.247,0.0
44767,STARLINK-1062,PAYLOAD,2022-09-23 19:40:57,15.06398002,0.0001452,53.0539,135.8587,72.0725,288.0423,0.00017843,2.377e-05,0.0,0 STARLINK-1062,1 44767U 19074BG  22266.82010505  .00002377  00000-0  17843-3 0  9993,2 44767  53.0539 135.8587 0001452  72.0725 288.0423 15.06398002158024,6925.355,95.592,548.225,546.214,0.0
44767,STARLINK-1062,PAYLOAD,2022-09-23 21:16:29,15.06399566,0.0001483,53.0539,135.5605,70.9626,289.1524,0.00019392,2.608e-05,0.0,0 STARLINK-1062,1 44767U 19074BG  22266.88645088  .00002608  00000-0  19392-3 0  9997,2 44767  53.0539 135.5605 0001483  70.9626 289.1524 15.06399566157864,6925.35,95.592,548.242,546.188,0.0
44767,STARLINK-1062,PAYLOAD,2022-09-24 08:25:16,15.06398572,0.0001493,53.0541,133.4763,73.7541,286.3612,0.00017106,2.267e-05,0.0,0 STARLINK-1062,1 44767U 19074BG  22267.35088108  .00002267  00000-0  17106-3 0  9996,2 44767  53.0541 133.4763 0001493  73.7541 286.3612 15.06398572157938,6925.353,95.592,548.252,546.184,0.0
